ENVISAT                 
1 27386U 02009A   23164.40786699  .00000240  00000+0  92397-4 0  9991
2 27386  98.2303 134.5654 0001321  90.4452  71.5211 14.38357581115348
IDEFIX & ARIANE 42P R/B 
1 27422U 02021B   23164.12196223  .00000281  00000+0  12630-3 0  9999
2 27422  98.4910 105.1629 0010886 253.0471 106.9519 14.29702467100980
AQUA                    
1 27424U 02022A   23164.58079981  .00000958  00000+0  21816-3 0  9990
2 27424  98.2872 109.0073 0001496 108.3567 356.1751 14.58097945122798
CZ-4B R/B               
1 27432U 02024C   23164.52839944  .00000050  00000+0  49609-4 0  9992
2 27432  99.0227 199.0611 0049918 337.9794 195.2212 14.14216575 87855
MIDORI II (ADEOS-II)    
1 27597U 02056A   23164.11200068  .00000335  00000+0  15309-3 0  9998
2 27597  98.6486 108.4362 0002050  64.8598 295.2796 14.27919169 67433
H-2A R/B                
1 27601U 02056E   23164.41968187  .00000297  00000+0  12181-3 0  9992
2 27601  98.1914 155.8396 0070349 264.4302 264.1390 14.32375675 70848
CZ-4B R/B               
1 28059U 03049C   23164.30134453  .00000507  00000+0  13204-3 0  9993
2 28059  98.5605 112.6324 0050608  46.2706 314.2663 14.53185537 41217
CZ-2C R/B               
1 28222U 04012C   23163.99191122  .00006730  00000+0  33231-3 0  9992
2 28222  97.8011 158.3665 0038624 253.4010 106.2980 15.17572514 50814
SL-16 R/B               
1 28353U 04021B   23164.41930654  .00000331  00000+0  19791-3 0  9992
2 28353  70.9982 171.1672 0003605 135.7638 224.3773 14.14326971981385
CZ-4B R/B               
1 28415U 04035C   23164.06302503  .00004338  00000+0  25755-3 0  9991
2 28415  97.4688 201.2733 0046216 220.7780 138.9988 15.10945105 27991
CZ-2C R/B               
1 28480U 04046B   23164.36021612  .00000125  00000+0  62651-4 0  9994
2 28480  98.1109 129.5547 0140220 233.1858 125.6392 14.26039109965872
ARIANE 5 R/B            
1 28499U 04049H   23164.30950523  .00000685  00000+0  89334-4 0  9991
2 28499  98.1356 290.2795 0089832 349.5212  32.8899 14.81286945997480
CZ-2D R/B               
1 28738U 05024B   23164.43613485  .00006528  00000+0  32198-3 0  9995
2 28738  97.3531 166.0596 0010618  14.5325 345.6213 15.18198262986423
SUZAKU (ASTRO-EII)      
1 28773U 05025A   23164.12432885  .00010194  00000+0  35438-3 0  9998
2 28773  31.3836  93.3660 0002396  71.9912 288.0999 15.28441043990093
ALOS (DAICHI)           
1 28931U 06002A   23164.35256141  .00001118  00000+0  22118-3 0  9991
2 28931  97.9878 121.9809 0000767 109.2952 250.8334 14.64187485926832
H-2A R/B                
1 28932U 06002B   23164.17817609  .00003306  00000+0  27930-3 0  9992
2 28932  98.2410 230.8808 0081583 346.6487  13.2573 14.96314397943927
RESURS-DK 1             
1 29228U 06021A   23164.52138052  .00002314  00000+0  17028-3 0  9994
2 29228  69.9360 287.9114 0007137 241.6296 118.4146 15.04859805936668
GENESIS 1               
1 29252U 06029A   23164.40282221  .00009259  00000+0  35486-3 0  9997
2 29252  64.5204 321.4470 0026010 213.3128 146.6364 15.26748078933949
CZ-4B R/B               
1 29507U 06046C   23163.85777988  .00003837  00000+0  27593-3 0  9992
2 29507  97.6856 197.1026 0044828  95.6710 264.9630 15.04037093908993
CZ-2C R/B               
1 31114U 07010B   23164.17196146  .00000159  00000+0  93075-4 0  9991
2 31114  98.2797 318.0456 0058844 327.2254  32.5279 14.19577388837734
COSMO-SKYMED 1          
1 31598U 07023A   23164.51588351  .00000594  00000+0  81195-4 0  9995
2 31598  97.8882 348.0437 0001335 103.0999 257.0363 14.82166879866369
GENESIS 2               
1 31789U 07028A   23163.90176281  .00007342  00000+0  28407-3 0  9993
2 31789  64.4957   7.2837 0057362 261.8489  97.6129 15.25443332880757
COSMOS 2428             
1 31792U 07029A   23164.35490136 -.00000109  00000+0 -32911-4 0  9998
2 31792  70.9290 142.8270 0008955 243.9075 116.1125 14.12544569822811
SL-16 R/B               
1 31793U 07029B   23164.35008288  .00000219  00000+0  13920-3 0  9990
2 31793  70.9758 114.6643 0001800 277.3103 248.6221 14.14540526823895
KORONAS-FOTON           
1 33504U 09003A   23164.57926506  .00004443  00000+0  20110-3 0  9994
2 33504  82.4402 214.9492 0019110  96.8748 263.4662 15.20473985792766
CZ-2C R/B               
1 37731U 11030B   23164.39693984  .00001514  00000+0  22091-3 0  9990
2 37731  97.7134 138.4285 0058031   0.8226 159.8998 14.76063868642279
H-2A R/B                
1 38341U 12025E   23164.09965528  .00002002  00000+0  23012-3 0  9993
2 38341  98.4570  47.6260 0052556 326.6094  33.1808 14.86113660599183
CUSAT 2 & FALCON 9 R/B  
1 39271U 13055G   23164.42269429  .00038654  00000+0  68261-3 0  9991
2 39271  80.9474 151.9292 0444829  71.5655 293.3369 14.84574257509887
SHIJIAN-16 (SJ-16)      
1 39358U 13057A   23164.50222637  .00001706  00000+0  19215-3 0  9991
2 39358  74.9738 270.9143 0018753   8.2025 351.9463 14.87172608522638
CZ-2C R/B               
1 39364U 13059B   23164.06367366  .00025427  00000+0  56680-3 0  9993
2 39364  97.1047 211.1813 0034942 112.1805 248.3157 15.42905858535552
SL-4 R/B                
1 39679U 14021B   23164.56264885  .00005722  00000+0  25517-3 0  9990
2 39679  51.6135  69.8013 0154093 137.2627 224.0450 15.12924785503698
ALOS-2                  
1 39766U 14029A   23164.49665308  .00002094  00000+0  28721-3 0  9991
2 39766  97.9211 261.4426 0001597  98.5747 261.5645 14.79470844489018
SL-27 R/B               
1 40354U 14084B   23164.53599285  .00013400  00000+0  21441-3 0  9997
2 40354  74.7341 280.0276 0027991 278.5443  81.2604 15.52662199476442
YAOGAN-29               
1 41038U 15069A   23164.59319215  .00000556  00000+0  78166-4 0  9995
2 41038  98.0617 171.7586 0002009  60.4830 299.6582 14.81344637407740
ASTRO-H (HITOMI)        
1 41337U 16012A   23164.58442671  .00002368  00000+0  17398-3 0  9990
2 41337  31.0042 285.0008 0011518  62.9242 297.2568 15.01109846401395
HXMT (HUIYAN)           
1 42758U 17034A   23164.46227889  .00003657  00000+0  22257-3 0  9994
2 42758  43.0138 159.5272 0006047 331.4435  28.6079 15.11899962330805
CZ-2C R/B               
1 43521U 18054D   23164.59271815  .00006312  00000+0  28213-3 0  9997
2 43521  35.1516 276.0513 0070117  50.1039 310.5815 15.18475874274495
AEOLUS                  
1 43600U 18066A   23163.96509641  .00136182  82340-5  52761-3 0  9996
2 43600  96.7140 169.3905 0011029 101.1747 259.0766 15.87130484278293
SAOCOM 1A               
1 43641U 18076A   23164.52423643  .00000517  00000+0  71508-4 0  9992
2 43641  97.8887 351.0614 0001403  88.7194 271.4179 14.82146965253212
H-2A R/B                
1 43682U 18084L   23164.05102344  .00005660  00000+0  35716-3 0  9990
2 43682  98.8944 187.5276 0051717 156.0167 204.3483 15.08496893253591
SAOCOM 1B               
1 46265U 20059A   23164.55543484  .00000536  00000+0  73924-4 0  9995
2 46265  97.8892 350.1688 0001380  90.5090 269.6282 14.82152637150600
CSS (TIANHE)            
1 48274U 21035A   23164.54080689  .00013436  00000+0  16503-3 0  9996
2 48274  41.4730 178.0275 0002565 346.2679 153.5219 15.60042872121264
2022-019U               
1 51842U 22019U   23164.57495193  .00016805  00000+0  48585-3 0  9995
2 51842  97.5291 251.2869 0054098 356.5477   3.5384 15.34218909 71914
CZ-2C R/B               
1 52794U 22058K   23164.22338359  .00006044  00000+0  30010-3 0  9995
2 52794  50.1706 244.8349 0094548  88.7929 272.3855 15.15184050 56895
CZ-2C R/B               
1 53131U 22082D   23164.00878606  .00026977  00000+0  48954-3 0  9991
2 53131  97.3456 179.0401 0034695 250.1701 109.5809 15.48878972 51135
